{"type": "FeatureCollection", "features": [ {"type": "Feature", "properties": {"norad_id": 34833, "name": "IRIDIUM 33 DEB", "group": "iridium-33-debris", "lat": -55.43063717992506, "lon": 41.143257306610906, "alt_km": 732.6319374879076, "timestamp": "2025-12-23T09:49:07.468239+00:00", "meta": {"OBJECT_NAME": "IRIDIUM 33 DEB", "OBJECT_ID": "1997-051MH", "EPOCH": "2025-12-21T03:45:30.832704", "MEAN_MOTION": 14.52421073, "ECCENTRICITY": 0.00214678, "INCLINATION": 86.3927, "RA_OF_ASC_NODE": 47.3667, "ARG_OF_PERICENTER": 72.8031, "MEAN_ANOMALY": 341.7014, "EPHEMERIS_TYPE": 0, "CLASSIFICATION_TYPE": "U", "NORAD_CAT_ID": 34833, "ELEMENT_SET_NO": 999, "REV_AT_EPOCH": 87837, "BSTAR": 0.00044712979, "MEAN_MOTION_DOT": 1.848e-05, "MEAN_MOTION_DDOT": 0}, "tle": {"line1": "1 34833U 97051MH  25355.15660686  .00001848  00000+0  44713-3 0  9993", "line2": "2 34833  86.3927  47.3667 0021467  72.8031 341.7014 14.52421073878374"}}, "geometry": {"type": "Point", "coordinates": [41.143257306610906, -55.43063717992506]}}, {"type": "Feature", "properties": {"norad_id": 34870, "name": "IRIDIUM 33 DEB", "group": "iridium-33-debris", "lat": 57.8846835390933, "lon": 123.29774732220656, "alt_km": 623.0554598306226, "timestamp": "2025-12-23T09:49:07.468249+00:00", "meta": {"OBJECT_NAME": "IRIDIUM 33 DEB", "OBJECT_ID": "1997-051MQ", "EPOCH": "2025-12-22T20:23:31.246080", "MEAN_MOTION": 14.76611259, "ECCENTRICITY": 0.00177501, "INCLINATION": 86.3115, "RA_OF_ASC_NODE": 309.4529, "ARG_OF_PERICENTER": 146.7714, "MEAN_ANOMALY": 243.206, "EPHEMERIS_TYPE": 0, "CLASSIFICATION_TYPE": "U", "NORAD_CAT_ID": 34870, "ELEMENT_SET_NO": 999, "REV_AT_EPOCH": 89060, "BSTAR": 0.0014600541, "MEAN_MOTION_DOT": 0.0001025, "MEAN_MOTION_DDOT": 0}, "tle": {"line1": "1 34870U 97051MQ  25356.84966720  .00010250  00000+0  14601-2 0  9998", "line2": "2 34870  86.3115 309.4529 0017750 146.7714 243.2060 14.76611259890602"}}, "geometry": {"type": "Point", "coordinates": [123.29774732220656, 57.8846835390933]}}, {"type": "Feature", "properties": {"norad_id": 34896, "name": "IRIDIUM 33 DEB", "group": "iridium-33-debris", "lat": -67.73509656128748, "lon": -47.12102631243745, "alt_km": 687.769790338527, "timestamp": "2025-12-23T09:49:07.468259+00:00", "meta": {"OBJECT_NAME": "IRIDIUM 33 DEB", "OBJECT_ID": "1997-051MY", "EPOCH": "2025-12-22T04:42:04.437216", "MEAN_MOTION": 14.66361603, "ECCENTRICITY": 0.00254644, "INCLINATION": 86.3297, "RA_OF_ASC_NODE": 322.4431, "ARG_OF_PERICENTER": 180.4876, "MEAN_ANOMALY": 190.8945, "EPHEMERIS_TYPE": 0, "CLASSIFICATION_TYPE": "U", "NORAD_CAT_ID": 34896, "ELEMENT_SET_NO": 999, "REV_AT_EPOCH": 87758, "BSTAR": 0.00089124778, "MEAN_MOTION_DOT": 4.968e-05, "MEAN_MOTION_DDOT": 0}, "tle": {"line1": "1 34896U 97051MY  25356.19588469  .00004968  00000+0  89125-3 0  9997", "line2": "2 34896  86.3297 322.4431 0025464 180.4876 190.8945 14.66361603877588"}}, "geometry": {"type": "Point", "coordinates": [-47.12102631243745, -67.73509656128748]}}, {"type": "Feature", "properties": {"norad_id": 34926, "name": "IRIDIUM 33 DEB", "group": "iridium-33-debris", "lat": -68.7112680372488, "lon": -6.674643278865871, "alt_km": 673.8909830204047, "timestamp": "2025-12-23T09:49:07.468269+00:00", "meta": {"OBJECT_NAME": "IRIDIUM 33 DEB", "OBJECT_ID": "1997-051NF", "EPOCH": "2025-12-21T19:20:10.732992", "MEAN_MOTION": 14.5478701, "ECCENTRICITY": 0.00744409, "INCLINATION": 86.132, "RA_OF_ASC_NODE": 4.0681, "ARG_OF_PERICENTER": 261.3659, "MEAN_ANOMALY": 276.799, "EPHEMERIS_TYPE": 0, "CLASSIFICATION_TYPE": "U", "NORAD_CAT_ID": 34926, "ELEMENT_SET_NO": 999, "REV_AT_EPOCH": 86588, "BSTAR": 0.0043404181, "MEAN_MOTION_DOT": 0.0001936, "MEAN_MOTION_DDOT": 0}, "tle": {"line1": "1 34926U 97051NF  25355.80567978  .00019360  00000+0  43404-2 0  9991", "line2": "2 34926  86.1320   4.0681 0074440 261.3659 276.7990 14.54787010865888"}}, "geometry": {"type": "Point", "coordinates": [-6.674643278865871, -68.7112680372488]}}, {"type": "Feature", "properties": {"norad_id": 34985, "name": "IRIDIUM 33 DEB", "group": "iridium-33-debris", "lat": -68.04730317145044, "lon": 43.26435159009909, "alt_km": 763.7504580510631, "timestamp": "2025-12-23T09:49:07.468279+00:00", "meta": {"OBJECT_NAME": "IRIDIUM 33 DEB", "OBJECT_ID": "1997-051NR", "EPOCH": "2025-12-21T03:18:55.645056", "MEAN_MOTION": 14.42041434, "ECCENTRICITY": 0.00216435, "INCLINATION": 86.369, "RA_OF_ASC_NODE": 53.2972, "ARG_OF_PERICENTER": 191.5239, "MEAN_ANOMALY": 198.031, "EPHEMERIS_TYPE": 0, "CLASSIFICATION_TYPE": "U", "NORAD_CAT_ID": 34985, "ELEMENT_SET_NO": 999, "REV_AT_EPOCH": 87296, "BSTAR": 0.00042163262, "MEAN_MOTION_DOT": 1.407e-05, "MEAN_MOTION_DDOT": 0}, "tle": {"line1": "1 34985U 97051NR  25355.13814404  .00001407  00000+0  42163-3 0  9996", "line2": "2 34985  86.3690  53.2972 0021643 191.5239 198.0310 14.42041434872968"}}, "geometry": {"type": "Point", "coordinates": [43.26435159009909, -68.04730317145044]}}, {"type": "Feature", "properties": {"norad_id": 35051, "name": "IRIDIUM 33 DEB", "group": "iridium-33-debris", "lat": 78.05479767128824, "lon": 21.90259609101479, "alt_km": 719.159189070454, "timestamp": "2025-12-23T09:49:07.468289+00:00", "meta": {"OBJECT_NAME": "IRIDIUM 33 DEB", "OBJECT_ID": "1997-051NX", "EPOCH": "2025-12-22T18:31:37.744896", "MEAN_MOTION": 14.47639956, "ECCENTRICITY": 0.0010302, "INCLINATION": 86.324, "RA_OF_ASC_NODE": 4.4893, "ARG_OF_PERICENTER": 63.2582, "MEAN_ANOMALY": 296.9674, "EPHEMERIS_TYPE": 0, "CLASSIFICATION_TYPE": "U", "NORAD_CAT_ID": 35051, "ELEMENT_SET_NO": 999, "REV_AT_EPOCH": 87141, "BSTAR": 0.00060447572, "MEAN_MOTION_DOT": 2.248e-05, "MEAN_MOTION_DDOT": 0}, "tle": {"line1": "1 35051U 97051NX  25356.77196464  .00002248  00000+0  60448-3 0  9991", "line2": "2 35051  86.3240   4.4893 0010302  63.2582 296.9674 14.47639956871417"}}, "geometry": {"type": "Point", "coordinates": [21.90259609101479, 78.05479767128824]}}, {"type": "Feature", "properties": {"norad_id": 35052, "name": "IRIDIUM 33 DEB", "group": "iridium-33-debris", "lat": -57.762281704545934, "lon": -158.2574532632471, "alt_km": 780.0804573240421, "timestamp": "2025-12-23T09:49:07.468299+00:00", "meta": {"OBJECT_NAME": "IRIDIUM 33 DEB", "OBJECT_ID": "1997-051NY", "EPOCH": "2025-12-22T19:21:39.718080", "MEAN_MOTION": 14.38503197, "ECCENTRICITY": 0.0013247, "INCLINATION": 86.3299, "RA_OF_ASC_NODE": 16.1594, "ARG_OF_PERICENTER": 56.9072, "MEAN_ANOMALY": 303.3396, "EPHEMERIS_TYPE": 0, "CLASSIFICATION_TYPE": "U", "NORAD_CAT_ID": 35052, "ELEMENT_SET_NO": 999, "REV_AT_EPOCH": 87420, "BSTAR": 0.0001619794, "MEAN_MOTION_DOT": 5.15e-06, "MEAN_MOTION_DDOT": 0}, "tle": {"line1": "1 35052U 97051NY  25356.80670970  .00000515  00000+0  16198-3 0  9993", "line2": "2 35052  86.3299  16.1594 0013247  56.9072 303.3396 14.38503197874205"}}, "geometry": {"type": "Point", "coordinates": [-158.2574532632471, -57.762281704545934]}}, {"type": "Feature", "properties": {"norad_id": 35080, "name": "IRIDIUM 33 DEB", "group": "iridium-33-debris", "lat": 80.29364587493639, "lon": -155.54168288577418, "alt_km": 570.0322954677713, "timestamp": "2025-12-23T09:49:07.468310+00:00", "meta": {"OBJECT_NAME": "IRIDIUM 33 DEB", "OBJECT_ID": "1997-051PF", "EPOCH": "2025-12-20T15:09:22.011264", "MEAN_MOTION": 14.86879121, "ECCENTRICITY": 0.00589702, "INCLINATION": 86.2079, "RA_OF_ASC_NODE": 48.603, "ARG_OF_PERICENTER": 152.5629, "MEAN_ANOMALY": 207.8731, "EPHEMERIS_TYPE": 0, "CLASSIFICATION_TYPE": "U", "NORAD_CAT_ID": 35080, "ELEMENT_SET_NO": 999, "REV_AT_EPOCH": 69805, "BSTAR": 0.0035206039, "MEAN_MOTION_DOT": 0.00032575, "MEAN_MOTION_DDOT": 0}, "tle": {"line1": "1 35080U 97051PF  25354.63150476  .00032575  00000+0  35206-2 0  9998", "line2": "2 35080  86.2079  48.6030 0058970 152.5629 207.8731 14.86879121698053"}}, "geometry": {"type": "Point", "coordinates": [-155.54168288577418, 80.29364587493639]}}, {"type": "Feature", "properties": {"norad_id": 35297, "name": "IRIDIUM 33 DEB", "group": "iridium-33-debris", "lat": 40.7036300869297, "lon": 61.321802095481424, "alt_km": 733.2484112047068, "timestamp": "2025-12-23T09:49:07.468319+00:00", "meta": {"OBJECT_NAME": "IRIDIUM 33 DEB", "OBJECT_ID": "1997-051PM", "EPOCH": "2025-12-22T21:59:54.465504", "MEAN_MOTION": 14.45198443, "ECCENTRICITY": 0.00182775, "INCLINATION": 86.3852, "RA_OF_ASC_NODE": 58.4147, "ARG_OF_PERICENTER": 110.0569, "MEAN_ANOMALY": 250.2602, "EPHEMERIS_TYPE": 0, "CLASSIFICATION_TYPE": "U", "NORAD_CAT_ID": 35297, "ELEMENT_SET_NO": 999, "REV_AT_EPOCH": 70573, "BSTAR": 0.00060274757, "MEAN_MOTION_DOT": 2.134e-05, "MEAN_MOTION_DDOT": 0}, "tle": {"line1": "1 35297U 97051PM  25356.91660261  .00002134  00000+0  60275-3 0  9992", "line2": "2 35297  86.3852  58.4147 0018277 110.0569 250.2602 14.45198443705738"}}, "geometry": {"type": "Point", "coordinates": [61.321802095481424, 40.7036300869297]}}, {"type": "Feature", "properties": {"norad_id": 35299, "name": "IRIDIUM 33 DEB", "group": "iridium-33-debris", "lat": 9.9216037812274, "lon": -152.11017799712158, "alt_km": 765.407623435277, "timestamp": "2025-12-23T09:49:07.468330+00:00", "meta": {"OBJECT_NAME": "IRIDIUM 33 DEB", "OBJECT_ID": "1997-051PP", "EPOCH": "2025-12-22T13:44:18.048768", "MEAN_MOTION": 14.40906942, "ECCENTRICITY": 0.00586525, "INCLINATION": 86.2871, "RA_OF_ASC_NODE": 28.9049, "ARG_OF_PERICENTER": 71.0129, "MEAN_ANOMALY": 80.9234, "EPHEMERIS_TYPE": 0, "CLASSIFICATION_TYPE": "U", "NORAD_CAT_ID": 35299, "ELEMENT_SET_NO": 999, "REV_AT_EPOCH": 86472, "BSTAR": 0.00074859853, "MEAN_MOTION_DOT": 2.47e-05, "MEAN_MOTION_DDOT": 0}, "tle": {"line1": "1 35299U 97051PP  25356.57243112  .00002470  00000+0  74860-3 0  9996", "line2": "2 35299  86.2871  28.9049 0058652  71.0129  80.9234 14.40906942864722"}}, "geometry": {"type": "Point", "coordinates": [-152.11017799712158, 9.9216037812274]}}]}